# Made by eph2tle, compiled Sep 16 2024 20:36:24
# Run at Thu Sep 19 12:06:41 2024
#
#    The following TLEs (Two-Line Elements) were generated by fitting
# a numerically-integrated ephemeris,  based on the orbit given below,
# to the SDP4/SGP4 models.  Each TLE is good for the interval between
# its epoch and the epoch of the subsequent TLE (usually one day).
# The maximum deviation between the numerically integrated ephemerides
# and the TLE-based ephemeris, in kilometers,  is given for each TLE
# as the "worst residual".
#
#    This fitting is done using the 'eph2tle' code packaged with Find_Orb.
# The code has details on how the TLEs were computed :
#
#    https://github.com/Bill-Gray/find_orb/eph2tle.cpp
#
#    Be warned:  the error given is that between the numerically
# integrated ephems and the TLE model.  There will usually be at
# least some additional difference between the ephems and the actual
# motion of the satellite,  especially if the ephemerides are based
# on a short arc.  If the following orbital elements say something
# like "[based on] 10 observations 2015 Jan. 1-13",  and the TLEs
# are for 2015 May,  the extrapolation may be tenuous at best.  If
# your application requires a specific level of accuracy,  you may
# want to contact me;  I can give you some idea as to the fit of the
# underlying data (and possibly TLEs based on newer data).
#
#   You can usually find the underlying observational data,  and the
# fitted orbit,  residuals,  ephemerides,  and sometimes some comments
# about the object,  among the pages listed at
#
#    https://www.projectpluto.com/pluto/mpecs/pseudo.htm
#
#    WARNING:  for this object,  "normal" TLEs cannot be fitted.  (This
# usually means an object with an hyperbolic or nearly-parabolic orbit.)
# For this and similar cases,   an alternative model is used,  in which
# most of the traditional TLE data is replaced by six signed 8-digit hex
# numbers.  These six numbers are a state vector,  numerically integrated
# using a simplified force model.  This is necessary for objects at L2 or
# L1,  and sometimes for objects in high orbits where the SDP4/SGP4 model
# fails.  Some documentation is in 'get_el.cpp' in the source code at
# https://www.github.com/Bill-Gray/sat_code ; look for 'hex' in that file,
# with the actual integration done in 'sdp4.cpp'.  But be aware:  it's my
# own extension,  doesn't work with other code,  and is therefore used
# only when necessary.
#
#    Also,  if you use a TLE outside the "correct" time range (between
# its MJD and that of the next TLE),  all bets are off.  I've carefully
# computed and minimized the worst error over the "correct" time frame,
# but the ephemeris may (or may not) diverge wildly outside of it.
#
# Ephem range: 60523.000000 60713.000000 1.000000
# Created Thu Sep 19 12:06:33 2024
# Ephemeris start:  1 Aug 2024  0:00:00
# Ephemeris end:    7 Feb 2025  0:00:00
# Times are all TDT
# Positions/velocities are in equatorial J2000
# Orbital elements:  SSA02
#    Perigee 2024 Sep 12.81378 +/- 0.000258 TT = 19:31:50 (JD 2460566.31378)
# Epoch 2024 Sep 19.0 TT = JDT 2460572.5                           Find_Orb
# M  83.97928508 +/- 0.012            (J2000 equator)
# n  13.57520768 +/- 0.00138          Peri.  261.18511 +/- 0.007
# a375640.593 +/- 25.4                Node     2.88683 +/- 0.00007
# e   0.3174701 +/- 2.4e-5            Incl.   26.91353 +/- 0.000052
# P  26.5184d                H 30.33  G  0.15   U  8.3
# q 256385.902 +/- 8.37    Q 494895.284 +/- 42.5
# 18 of 20 observations 2024 Sept. 12-19; mean residual 0".384
#
# 1 NoradU COSPAR   Epoch.epoch     dn/dt/2  d2n/dt2/6 BSTAR    T El# C
# 2 NoradU Inclina RAAscNode Eccent  ArgPeri MeanAno  MeanMotion Rev# C

# Worst residual: 41.04 km
# MJD 60523.000000 (2024 Aug  1  0:00)
SSA02
1 79912U 24048ZZY 24213.99919926 +001BYJMJ +004VSW6P +002LE2QCH 24543
2 79912                          -00078QXR -00006ZL4 +0000BVW7     04

# Worst residual: 70.41 km
# MJD 60524.000000 (2024 Aug  2  0:00)
SSA02
1 79912U 24048ZZY 24214.99919926 -000GWT49 +004O6UXC +002L2I8PH 24545
2 79912                          -0007ODDT -0001KX56 -0000F6NZ     08

# Worst residual: 35.14 km
# MJD 60525.000000 (2024 Aug  3  0:00)
SSA02
1 79912U 24048ZZY 24215.99919926 -002AK8V1 +0044R0KI +002E1HX7H 24540
2 79912                          -0007DL0E -0002VK05 -00016ZAY     04

# Worst residual: 23.07 km
# MJD 60526.000000 (2024 Aug  4  0:00)
SSA02
1 79912U 24048ZZY 24216.99919926 -003Y4IHZ +003BGUTP +0020U5KKH 24549
2 79912                          -0006B8CW -0003U46H -0001TVTN     01

# Worst residual: 13.31 km
# MJD 60527.000000 (2024 Aug  5  0:00)
SSA02
1 79912U 24048ZZY 24217.99919926 -005ANQF7 +002BMMBR +001J27X6H 24543
2 79912                          -0004WGND -0004E556 -00028UYK     07

# Worst residual: 10.56 km
# MJD 60528.000000 (2024 Aug  6  0:00)
SSA02
1 79912U 24048ZZY 24218.99919926 -006AU6X8 +0018LXGC +000YN50BH 24548
2 79912                          -0003HJRZ -0004L3Z5 -0002G5RY     05

# Worst residual: 8.02 km
# MJD 60529.000000 (2024 Aug  7  0:00)
SSA02
1 79912U 24048ZZY 24219.99919926 -006Z9J6V +00055H5J +000D7L6IH 24544
2 79912                          -00026S65 -0004IC2V -0002HMBG     00

# Worst residual: 13.32 km
# MJD 60530.000000 (2024 Aug  8  0:00)
SSA02
1 79912U 24048ZZY 24220.99919926 -007D028S -000WR2PY -00081FA5H 24542
2 79912                          -00010AYA -00048IPC -0002EV5E     03

# Worst residual: 25.04 km
# MJD 60531.000000 (2024 Aug  9  0:00)
SSA02
1 79912U 24048ZZY 24221.99919926 -007GWBXQ -001VMFQJ -000S8AARH 24546
2 79912                          +00003MD7 -0003T9GX -00028X3B     07

# Worst residual: 29.68 km
# MJD 60532.000000 (2024 Aug 10  0:00)
SSA02
1 79912U 24048ZZY 24222.99919926 -007B8L97 -002QB3PZ -001AOOJLH 24548
2 79912                          +00017UP4 -00039XMN -00020JRZ     08

# Worst residual: 36.86 km
# MJD 60533.000000 (2024 Aug 11  0:00)
SSA02
1 79912U 24048ZZY 24223.99919926 -006VMNRX -003G4AB3 -001QY9NSH 24548
2 79912                          +0002ENN9 -0002P7SH -0001QWNI     03

# Worst residual: 38.68 km
# MJD 60534.000000 (2024 Aug 12  0:00)
SSA02
1 79912U 24048ZZY 24224.99919926 -0065KAI7 -00412NKW -0024UWNSH 24544
2 79912                          +0003MEAI -00025KL2 -0001GWF0     05

# Worst residual: 38.67 km
# MJD 60535.000000 (2024 Aug 13  0:00)
SSA02
1 79912U 24048ZZY 24225.99919926 -00557VXV -004HARNJ -002G8MRMH 24545
2 79912                          +0004RZUM -0001L6I2 -00015K22     05

# Worst residual: 40.48 km
# MJD 60536.000000 (2024 Aug 14  0:00)
SSA02
1 79912U 24048ZZY 24226.99919926 -003V8KE1 -004S4VUX -002OJ9NYH 24546
2 79912                          +0005UOGW -0000W05B -0000QTXN     02

# Worst residual: 44.55 km
# MJD 60537.000000 (2024 Aug 15  0:00)
SSA02
1 79912U 24048ZZY 24227.99919926 -002CDVQC -004VZNYC -002SOJFVH 24544
2 79912                          +0006TKYP +00001IHL -00006NEB     04

# Worst residual: 55.82 km
# MJD 60538.000000 (2024 Aug 16  0:00)
SSA02
1 79912U 24048ZZY 24228.99919926 -000LZVGB -004QKP05 -002R5VDSH 24543
2 79912                          +0007K9H0 +000199WQ +0000KHJ1     06

# Worst residual: 44.52 km
# MJD 60539.000000 (2024 Aug 17  0:00)
SSA02
1 79912U 24048ZZY 24229.99919926 +0018QSNA -0049Q8LY -002IEVMSH 24549
2 79912                          +0007R7H0 +0002NAG4 +0001GSFR     01

# Worst residual: 28.18 km
# MJD 60540.000000 (2024 Aug 18  0:00)
SSA02
1 79912U 24048ZZY 24230.99919926 +0031643W -003H9U79 -00221DG3H 24542
2 79912                          +0006ZEYR +0003W161 +0002AGIE     09

# Worst residual: 38.61 km
# MJD 60541.000000 (2024 Aug 19  0:00)
SSA02
1 79912U 24048ZZY 24231.99919926 +004J4S8A -002FOL68 -001FNJAGH 24543
2 79912                          +0005FJ6X +0004QAFA +0002U2OG     09

# Worst residual: 37.97 km
# MJD 60542.000000 (2024 Aug 20  0:00)
SSA02
1 79912U 24048ZZY 24232.99919926 +005MJGC5 -0018ZFQP -000PZW8BH 24548
2 79912                          +0003P35A +00052OVZ +00031WPQ     02

# Worst residual: 38.32 km
# MJD 60543.000000 (2024 Aug 21  0:00)
SSA02
1 79912U 24048ZZY 24233.99919926 +006BENRJ -00015XAC +0000CSS1H 24544
2 79912                          +000238I4 +00050FUB +00030EEL     05

# Worst residual: 48.33 km
# MJD 60544.000000 (2024 Aug 22  0:00)
SSA02
1 79912U 24048ZZY 24234.99919926 +006N6665 +0014TN33 +000PIGN3H 24544
2 79912                          +0000NQ20 +0004O350 +0002SBIN     06

# Worst residual: 52.16 km
# MJD 60545.000000 (2024 Aug 23  0:00)
SSA02
1 79912U 24048ZZY 24235.99919926 +006N3PNI +0026ZG5M +001C4K3SH 24542
2 79912                          -0000NZ01 +000452ZV +0002FGOF     05

# Worst residual: 31.07 km
# MJD 60546.000000 (2024 Aug 24  0:00)
SSA02
1 79912U 24048ZZY 24236.99919926 +006BP8D8 +0034545N +001V9UQFH 24546
2 79912                          -0001Z1JR +0003J2M2 +0001ZW0L     01

# Worst residual: 18.13 km
# MJD 60547.000000 (2024 Aug 25  0:00)
SSA02
1 79912U 24048ZZY 24237.99919926 +005P4BEA +003VZT6L +002AN279H 24542
2 79912                          -00038JQZ +0002X1B6 +0001KA0S     02

# Worst residual: 7.37 km
# MJD 60548.000000 (2024 Aug 26  0:00)
SSA02
1 79912U 24048ZZY 24238.99919926 +004S5CIJ +004IFRFN +002MAM5AH 24545
2 79912                          -0004DAL9 +00029FLD +00014P0Q     00

# Worst residual: 7.66 km
# MJD 60549.000000 (2024 Aug 27  0:00)
SSA02
1 79912U 24048ZZY 24239.99919926 +003M25DS +004YOWXF +002U0WFHH 24542
2 79912                          -0005CITX +0001GZI2 +0000N9N6     04

# Worst residual: 8.16 km
# MJD 60550.000000 (2024 Aug 28  0:00)
SSA02
1 79912U 24048ZZY 24240.99919926 +00287NHZ +0057APFY +002X70AEH 24546
2 79912                          -00065QSS +0000HE68 +00002I5G     03

# Worst residual: 7.60 km
# MJD 60551.000000 (2024 Aug 29  0:00)
SSA02
1 79912U 24048ZZY 24241.99919926 +000OA54S +0056DAVU +002UWJ31H 24545
2 79912                          -0006QN0Q -0000QIVS -0000M97J     05

